Corps du système solaire : Mercure (Planet)
Époque : 2022-01-31T05:32:26.132 / +10000 / 1 Jour / UTC
Système de coordonnées (ICRF) : Héliocentre – Écliptique – Astrométrique J2000 – Cartésiennes
Options : INPOP19a
Éphémérides de position
Colonnes :
1: Date (undefined)
2: px (au)
3: py (au)
4: pz (au)
5: Dobs (au)
6: Phase (deg)
7: VMag (mag)
8: vx (au/d)
9: vy (au/d)
10: vz (au/d)
11: RV (km/s)
$$SOE
2468493.7308580093 -0.316706580448  0.152444991316  0.041493325734 0.353926870351 0 -5.11 -0.017991372723 -0.024164707523 -0.000326299021   9.7874836
2468494.7308580093 -0.333638214975  0.127806901587  0.041031186582 0.359628448342 0 -5.04 -0.015871558708 -0.025079027681 -0.000595357861   9.9452553
2468495.7308580093 -0.348448838993  0.102354746348  0.040308074778 0.365400914597 0 -4.97 -0.013752215478 -0.025794927183 -0.000848152564  10.0339089
2468496.7308580093 -0.361147393644   0.07628075495  0.039340524752 0.371205967623 0  -4.9 -0.011649776616  -0.02632488427 -0.001084196848  10.0590406
2468497.7308580093 -0.371757801597  0.049764406938  0.038145401914 0.377008528993 0 -4.84 -0.009577823195 -0.026681840858 -0.001303303811  10.0261917
2468498.7308580093 -0.380316262618  0.022972189432  0.036739634917 0.382776673627 0 -4.77 -0.007547384062 -0.026878780383 -0.001505523894   9.9407243
2468499.7308580093 -0.386868859139 -0.003942279064  0.035140006294 0.388481499917 0 -4.71 -0.005567251534  -0.02692841422  -0.00169109031   9.8077356
2468500.7308580093 -0.391469476516 -0.030837858551  0.033362993712  0.39409696004 0 -4.64 -0.003644292353 -0.026842959599 -0.001860372383   9.6320049
2468501.7308580093 -0.394178026148 -0.057585313941  0.031424653983 0.399599666614 0 -4.58  -0.00178374083 -0.026633991853 -0.002013836598   9.4179636
2468502.7308580093 -0.395058949494 -0.084066624261  0.029340542407 0.404968688072 0 -4.53  0.000010533335 -0.026312355192 -0.002152014756   9.1696848
2468503.7308580093 -0.394179975596 -0.110174226087  0.027125660734 0.410185341919 0 -4.47  0.001735786124  -0.02588811821 -0.002275478438   8.8908859
2468504.7308580093 -0.391611102671 -0.135810229942  0.024794427868 0.415232992361 0 -4.42  0.003390189916 -0.025370562547 -0.002384818893   8.5849405
2468505.7308580093  -0.38742377449 -0.160885637988  0.022360668327 0.420096856736 0 -4.37  0.004972652837 -0.024768195351 -0.002480631497   8.2548962
2468506.7308580093  -0.38169022392 -0.185319582902  0.019837614288 0.424763823535 0 -4.32  0.006482664668 -0.024088778115 -0.002563503985   7.9034969
2468507.7308580093 -0.374482958333 -0.209038601353   0.01723791781  0.42922228361 0 -4.27  0.007920166663 -0.023339366201 -0.002634007749   7.5332059
2468508.7308580093 -0.365874364396 -0.231975950508  0.014573670488 0.433461975273 0 -4.23  0.009285442473 -0.022526354752 -0.002692691596   7.1462305
2468509.7308580093 -0.355936412557 -0.254070972292  0.011856428331 0.437473843376 0 -4.19  0.010579027347  -0.02165552784 -0.002740077439   6.7445461
2468510.7308580093  -0.34474044427 -0.275268507429  0.009097240166 0.441249912042 0 -4.15  0.011801632988 -0.020732108582 -0.002776657506   6.3299189
2468511.7308580093 -0.332357027551 -0.295518359418  0.006306678213 0.444783170438 0 -4.12  0.012954085646  -0.01976080868 -0.002802892719   5.9039284
2468512.7308580093 -0.318855868699 -0.314774807287  0.003494869826 0.448067470836 0 -4.09  0.014037275325 -0.018745876325  -0.00281921195   5.4679876
2468513.7308580093 -0.304305770058 -0.332996165178   0.00067152963 0.451097438106 0 -4.06  0.015052114215 -0.017691141845 -0.002826011945   5.0233622
2468514.7308580093 -0.288774625394  -0.35014438626 -0.002154008528 0.453868389793 0 -4.03  0.015999502753 -0.016600060738  -0.00282365773   4.5711883
2468515.7308580093  -0.27232944597 -0.366184708322 -0.004972760214 0.456376265921 0 -4.01  0.016880301931 -0.015475753947 -0.002812483365   4.1124883
2468516.7308580093 -0.255036411697 -0.381085338246 -0.007776059922 0.458617567724 0 -3.99  0.017695310694 -0.014321045397 -0.002792792941   3.6481856
2468517.7308580093  -0.23696094273 -0.394817172694 -0.010555531679 0.460589304568 0 -3.97  0.018445247443 -0.013138496901  -0.00276486174   3.1791187
2468518.7308580093 -0.218167787869 -0.407353552453 -0.013303060861 0.462288948374 0 -3.95  0.019130734841 -0.011930440626 -0.002728937493    2.706053
2468519.7308580093 -0.198721126782 -0.418670048123 -0.016010767298 0.463714394961 0 -3.94   0.01975228723 -0.010699009346 -0.002685241701   2.2296931
2468520.7308580093 -0.178684683742 -0.428744275052 -0.018670979726 0.464863931788 0 -3.93  0.020310300109  -0.00944616475 -0.002633970987   1.7506924
2468521.7308580093 -0.158121851049 -0.437555735723 -0.021276211583 0.465736211629 0 -3.92  0.020805041215 -0.008173724083 -0.002575298452   1.2696641
2468522.7308580093 -0.137095820731 -0.445085688074 -0.023819138173 0.466330231846 0 -3.91  0.021236642829 -0.006883385417 -0.002509375041     0.78719
2468523.7308580093  -0.11566972345  -0.45131703852 -0.026292575192 0.466645318943 0 -3.91  0.021605095012 -0.005576751849 -0.002436330897   0.3038296
2468524.7308580093 -0.093906773814 -0.456234258766 -0.028689458602  0.46668111819 0 -3.91  0.021910239529 -0.004255354937 -0.002356276722  -0.1798714
2468525.7308580093 -0.071870421488 -0.459823325808 -0.031002825881 0.466437588166 0 -3.91  0.022151764292 -0.002920677687 -0.002269305146  -0.6633723
2468526.7308580093 -0.049624507674 -0.462071684817 -0.033225798639 0.465915000152 0 -3.92  0.022329198185 -0.001574177398 -0.002175492121  -1.1461296
2468527.7308580093 -0.027233426598 -0.462968234951 -0.035351566663 0.465113942345 0 -3.92  0.022441906187 -0.000217308716 -0.002074898359  -1.6275879
2468528.7308580093 -0.004762291743  -0.46250333845 -0.037373373415 0.464035328979 0 -3.93  0.022489084781  0.001148452789 -0.001967570835  -2.1071721
2468529.7308580093  0.017722893468 -0.460668853724   -0.0392845031 0.462680414464 0 -3.95  0.022469757642  0.002521586154 -0.001853544398  -2.5842779
2468530.7308580093  0.040155060839 -0.457458193514 -0.041078269391 0.461050812753 0 -3.96  0.022382771678  0.003900499292 -0.001732843508   -3.058263
2468531.7308580093  0.062465898855 -0.452866409573 -0.042748005985 0.459148522218 0 -3.98  0.022226793566  0.005283501616 -0.001605484157  -3.5284369
2468532.7308580093   0.08458567097 -0.446890305725 -0.044287059192 0.456975956366 0    -4  0.022000306957  0.006668774588  -0.00147147602  -3.9940508
2468533.7308580093  0.106443031562  -0.43952858159 -0.045688782814 0.454535980839 0 -4.02  0.021701610629  0.008054339774 -0.001330824897   -4.454286
2468534.7308580093  0.127964840656 -0.430782009708 -0.046946535639 0.451831957193 0 -4.05  0.021328817964  0.009438023918 -0.001183535522  -4.9082418
2468535.7308580093  0.149075978985 -0.420653649274 -0.048053681966  0.44886779402 0 -4.08  0.020879858217  0.010817420563 -0.001029614814  -5.3549225
2468536.7308580093  0.169699165471 -0.409149100196 -0.049003595641 0.445648006098 0 -4.11  0.020352480209  0.012189847715 -0.000869075681  -5.7932225
2468537.7308580093  0.189754779924 -0.396276801697 -0.049789668218 0.442177782264 0 -4.14  0.019744259222  0.013552301022 -0.000701941472  -6.2219104
2468538.7308580093  0.209160694654 -0.382048380171 -0.050405321958 0.438463062824 0 -4.18  0.019052608102  0.014901401994 -0.000528251237  -6.6396127
2468539.7308580093  0.227832119789 -0.366479051525 -0.050844028545 0.434510627319 0 -4.22  0.018274793784  0.016233340785  -0.00034806591  -7.0447938
2468540.7308580093  0.245681468467 -0.349588083609 -0.051099334529 0.430328193521 0 -4.26  0.017407960796  0.017543813164 -0.000161475624  -7.4357371
2468541.7308580093   0.26261824978 -0.331399324711 -0.051164894722 0.425924528512 0 -4.31  0.016449163591  0.018827951426  0.000031391682  -7.8105223
2468542.7308580093  0.278548999411 -0.311941804187 -0.051034514936 0.421309572627 0 -4.35  0.015395409992  0.020080249233  0.000230360134  -8.1670032
2468543.7308580093  0.293377260402 -0.291250411191 -0.050702205711  0.41649457692 0  -4.4  0.014243718482  0.021294480679  0.000435194057  -8.5027837
2468544.7308580093  0.307003629457 -0.269366656918 -0.050162248871 0.411492254569 0 -4.46   0.01299119255  0.022463614397  0.000645584137  -8.8151932
2468545.7308580093  0.319325887699 -0.246339524656 -0.049409279003 0.406316946255 0 -4.51  0.011635115874  0.023579724171  0.000861131388  -9.1012631
2468546.7308580093    0.3302392388 -0.222226409998 -0.048438382146 0.400984798975 0 -4.57  0.010173072607  0.024633898497  0.001081328734   -9.357704
2468547.7308580093  0.339636681928 -0.197094150551 -0.047245214159 0.395513956964 0 -4.63    0.0086030975  0.025616152792  0.001305540069  -9.5808869
2468548.7308580093  0.347409551868 -0.171020139958   -0.0458261413 0.389924762265 0 -4.69  0.006923860903  0.026515349595  0.001532976777  -9.7668292
2468549.7308580093  0.353448263697 -0.144093514702 -0.044178405511 0.384239960966 0 -4.75  0.005134893631  0.027319134242  0.001762671862  -9.9111894
2468550.7308580093  0.357643304224 -0.116416393408 -0.042300316613 0.378484909205 0 -4.82  0.003236856224  0.028013896087  0.001993452093 -10.0092738
2468551.7308580093  0.359886516322 -0.088105136791 -0.040191473029 0.372687770478 0 -4.89  0.001231855751  0.028584768398  0.002223908958 -10.0560609
2468552.7308580093  0.360072724353 -0.059291581576 -0.037853011661 0.366879692761 0 -4.95 -0.000876189028  0.029015683519    0.0024523697 -10.0462483
2468553.7308580093  0.358101747838 -0.030124183329 -0.035287885891 0.361094950278 0 -5.02  -0.00308113736  0.029289503396  0.002676870379  -9.9743289
2468554.7308580093  0.353880844552 -0.000768981431 -0.032501168422 0.355371030645 0 -5.09  -0.00537418016  0.029388248727   0.00289513369  -9.8347051
2468555.7308580093  0.347327611168  0.028589724962 -0.029500372415  0.34974864378 0 -5.16 -0.007743374984   0.02929345194  0.003104555195  -9.6218468
$$EOE
